1998-067XU              
1 66908U 98067XU  26031.01316628  .00086635  00000+0  10548-2 0  9995
2 66908  51.6269 256.3207 0002691 156.1936 203.9182 15.59778525  9282
SILVERSAT               
1 66909U 98067XV  26030.99486521  .00090350  00000+0  10527-2 0  9998
2 66909  51.6275 256.1995 0003301 167.8709 192.2364 15.60906709  9289
1998-067XW              
1 66910U 98067XW  26031.00343402  .00073775  00000+0  89750-3 0  9990
2 66910  51.6265 256.2527 0001542 154.2121 205.8949 15.59869764  9282
1998-067XX              
1 66911U 98067XX  26030.65137421  .00107007  00000+0  11968-2 0  9994
2 66911  51.6253 257.6520 0002334 184.9619 175.1352 15.61893690  9229
1998-067XY              
1 66912U 98067XY  26030.98724384  .00056931  00000+0  76232-3 0  9996
2 66912  51.6281 256.8996 0002327 125.8569 234.2639 15.57433283  9261
